SL-16 R/B               
1 25400U 98043G   26023.82684821  .00000165  00000+0  88026-4 0  9996
2 25400  98.8184 336.8933 0010480 139.7101 220.4857 14.26037601432592
SL-16 R/B               
1 25407U 98045B   26023.65047127  .00000264  00000+0  15762-3 0  9994
2 25407  71.0110 276.2912 0005168  96.3759 263.7953 14.16185891420722
ISS (ZARYA)             
1 25544U 98067A   26023.72220588  .00016677  00000+0  30360-3 0  9998
2 25544  51.6325 294.6353 0007776  51.0046 309.1634 15.49596283549364
CZ-4B R/B               
1 25732U 99025C   26023.36343816  .00000157  00000+0  96570-4 0  9994
2 25732  98.6711  68.7007 0038121 114.7446 256.4901 14.18255199381748
OKEAN-O                 
1 25860U 99039A   26023.90399199  .00001750  00000+0  23686-3 0  9993
2 25860  97.9535  84.2291 0001861 100.1545 259.9877 14.80253466427761
SL-16 R/B               
1 25861U 99039B   26023.58860492  .00001189  00000+0  15762-3 0  9999
2 25861  98.0062  82.7303 0015793  47.6102 312.6444 14.81659748430180
DELTA 2 R/B             
1 25876U 99041E   26023.69990920  .00003911  00000+0  66590-3 0  9990
2 25876  51.7625 120.9304 0503033 215.4999 141.1473 14.11614903356676
HELIOS 1B               
1 25977U 99064A   26023.98376277  .00003544  00000+0  39737-3 0  9997
2 25977  98.1733 284.9050 0001182 135.6622 224.4688 14.87492572678619
TERRA                   
1 25994U 99068A   26023.92262031  .00001037  00000+0  22077-3 0  9990
2 25994  97.9685  79.0464 0001741 358.1489  54.2455 14.60960453388547
SL-16 R/B               
1 26070U 00006B   26023.51284640  .00000166  00000+0  10855-3 0  9998
2 26070  71.0004 192.8250 0018690 252.3495 107.5587 14.15813340342169
TITAN 4B R/B            
1 26474U 00047B   26023.90019268  .00006962  00000+0  43856-3 0  9993
2 26474  67.9891 166.4168 0036874  91.4364 269.1010 15.09153752386152
ENVISAT                 
1 27386U 02009A   26023.82622763  .00000267  00000+0  10039-3 0  9996
2 27386  98.3658 338.5132 0001208  91.9411 290.7486 14.39017880252723
