CCSDS_OMM_VERS = 2.0
CREATION_DATE  = 
ORIGINATOR     = 

OBJECT_NAME    = SL-16 R/B
OBJECT_ID      = 1998-043G
CENTER_NAME    = EARTH
REF_FRAME      = TEME
TIME_SYSTEM    = UTC
MEAN_ELEMENT_THEORY = SGP/SGP4

EPOCH          = 2026-01-23T19:50:39.685344
MEAN_MOTION    = 14.26037601
ECCENTRICITY   = .00104801
INCLINATION    = 98.8184
RA_OF_ASC_NODE = 336.8933
ARG_OF_PERICENTER = 139.7101
MEAN_ANOMALY   = 220.4857

EPHEMERIS_TYPE = 0
CLASSIFICATION_TYPE = U
NORAD_CAT_ID   = 25400
ELEMENT_SET_NO = 999
REV_AT_EPOCH   = 43259
BSTAR          = .88026441E-4
MEAN_MOTION_DOT = .165E-5
MEAN_MOTION_DDOT = 0

CCSDS_OMM_VERS = 2.0
CREATION_DATE  = 
ORIGINATOR     = 

OBJECT_NAME    = SL-16 R/B
OBJECT_ID      = 1998-045B
CENTER_NAME    = EARTH
REF_FRAME      = TEME
TIME_SYSTEM    = UTC
MEAN_ELEMENT_THEORY = SGP/SGP4

EPOCH          = 2026-01-23T15:36:40.717728
MEAN_MOTION    = 14.16185891
ECCENTRICITY   = .00051686
INCLINATION    = 71.0110
RA_OF_ASC_NODE = 276.2912
ARG_OF_PERICENTER = 96.3759
MEAN_ANOMALY   = 263.7953

EPHEMERIS_TYPE = 0
CLASSIFICATION_TYPE = U
NORAD_CAT_ID   = 25407
ELEMENT_SET_NO = 999
REV_AT_EPOCH   = 42072
BSTAR          = .15762358E-3
MEAN_MOTION_DOT = .264E-5
MEAN_MOTION_DDOT = 0

CCSDS_OMM_VERS = 2.0
CREATION_DATE  = 
ORIGINATOR     = 

OBJECT_NAME    = ISS (ZARYA)
OBJECT_ID      = 1998-067A
CENTER_NAME    = EARTH
REF_FRAME      = TEME
TIME_SYSTEM    = UTC
MEAN_ELEMENT_THEORY = SGP/SGP4

EPOCH          = 2026-01-23T17:19:58.588032
MEAN_MOTION    = 15.49596283
ECCENTRICITY   = .00077762
INCLINATION    = 51.6325
RA_OF_ASC_NODE = 294.6353
ARG_OF_PERICENTER = 51.0046
MEAN_ANOMALY   = 309.1634

EPHEMERIS_TYPE = 0
CLASSIFICATION_TYPE = U
NORAD_CAT_ID   = 25544
ELEMENT_SET_NO = 999
REV_AT_EPOCH   = 54936
BSTAR          = .30359733E-3
MEAN_MOTION_DOT = .16677E-3
MEAN_MOTION_DDOT = 0

CCSDS_OMM_VERS = 2.0
CREATION_DATE  = 
ORIGINATOR     = 

OBJECT_NAME    = CZ-4B R/B
OBJECT_ID      = 1999-025C
CENTER_NAME    = EARTH
REF_FRAME      = TEME
TIME_SYSTEM    = UTC
MEAN_ELEMENT_THEORY = SGP/SGP4

EPOCH          = 2026-01-23T08:43:21.057024
MEAN_MOTION    = 14.18255199
ECCENTRICITY   = .00381218
INCLINATION    = 98.6711
RA_OF_ASC_NODE = 68.7007
ARG_OF_PERICENTER = 114.7446
MEAN_ANOMALY   = 256.4901

EPHEMERIS_TYPE = 0
CLASSIFICATION_TYPE = U
NORAD_CAT_ID   = 25732
ELEMENT_SET_NO = 999
REV_AT_EPOCH   = 38174
BSTAR          = .96569937E-4
MEAN_MOTION_DOT = .157E-5
MEAN_MOTION_DDOT = 0

CCSDS_OMM_VERS = 2.0
CREATION_DATE  = 
ORIGINATOR     = 

OBJECT_NAME    = OKEAN-O
OBJECT_ID      = 1999-039A
CENTER_NAME    = EARTH
REF_FRAME      = TEME
TIME_SYSTEM    = UTC
MEAN_ELEMENT_THEORY = SGP/SGP4

EPOCH          = 2026-01-23T21:41:44.907936
MEAN_MOTION    = 14.80253466
ECCENTRICITY   = .00018612
INCLINATION    = 97.9535
RA_OF_ASC_NODE = 84.2291
ARG_OF_PERICENTER = 100.1545
MEAN_ANOMALY   = 259.9877

EPHEMERIS_TYPE = 0
CLASSIFICATION_TYPE = U
NORAD_CAT_ID   = 25860
ELEMENT_SET_NO = 999
REV_AT_EPOCH   = 42776
BSTAR          = .23685923E-3
MEAN_MOTION_DOT = .175E-4
MEAN_MOTION_DDOT = 0

CCSDS_OMM_VERS = 2.0
CREATION_DATE  = 
ORIGINATOR     = 

OBJECT_NAME    = SL-16 R/B
OBJECT_ID      = 1999-039B
CENTER_NAME    = EARTH
REF_FRAME      = TEME
TIME_SYSTEM    = UTC
MEAN_ELEMENT_THEORY = SGP/SGP4

EPOCH          = 2026-01-23T14:07:35.465088
MEAN_MOTION    = 14.81659748
ECCENTRICITY   = .00157932
INCLINATION    = 98.0062
RA_OF_ASC_NODE = 82.7303
ARG_OF_PERICENTER = 47.6102
MEAN_ANOMALY   = 312.6444

EPHEMERIS_TYPE = 0
CLASSIFICATION_TYPE = U
NORAD_CAT_ID   = 25861
ELEMENT_SET_NO = 999
REV_AT_EPOCH   = 43018
BSTAR          = .15761637E-3
MEAN_MOTION_DOT = .1189E-4
MEAN_MOTION_DDOT = 0

CCSDS_OMM_VERS = 2.0
CREATION_DATE  = 
ORIGINATOR     = 

OBJECT_NAME    = DELTA 2 R/B
OBJECT_ID      = 1999-041E
CENTER_NAME    = EARTH
REF_FRAME      = TEME
TIME_SYSTEM    = UTC
MEAN_ELEMENT_THEORY = SGP/SGP4

EPOCH          = 2026-01-23T16:47:52.154880
MEAN_MOTION    = 14.11614903
ECCENTRICITY   = .05030335
INCLINATION    = 51.7625
RA_OF_ASC_NODE = 120.9304
ARG_OF_PERICENTER = 215.4999
MEAN_ANOMALY   = 141.1473

EPHEMERIS_TYPE = 0
CLASSIFICATION_TYPE = U
NORAD_CAT_ID   = 25876
ELEMENT_SET_NO = 999
REV_AT_EPOCH   = 35667
BSTAR          = .66589721E-3
MEAN_MOTION_DOT = .3911E-4
MEAN_MOTION_DDOT = 0

CCSDS_OMM_VERS = 2.0
CREATION_DATE  = 
ORIGINATOR     = 

OBJECT_NAME    = HELIOS 1B
OBJECT_ID      = 1999-064A
CENTER_NAME    = EARTH
REF_FRAME      = TEME
TIME_SYSTEM    = UTC
MEAN_ELEMENT_THEORY = SGP/SGP4

EPOCH          = 2026-01-23T23:36:37.103328
MEAN_MOTION    = 14.87492572
ECCENTRICITY   = .0001182
INCLINATION    = 98.1733
RA_OF_ASC_NODE = 284.9050
ARG_OF_PERICENTER = 135.6622
MEAN_ANOMALY   = 224.4688

EPHEMERIS_TYPE = 0
CLASSIFICATION_TYPE = U
NORAD_CAT_ID   = 25977
ELEMENT_SET_NO = 999
REV_AT_EPOCH   = 67861
BSTAR          = .39736732E-3
MEAN_MOTION_DOT = .3544E-4
MEAN_MOTION_DDOT = 0

CCSDS_OMM_VERS = 2.0
CREATION_DATE  = 
ORIGINATOR     = 

OBJECT_NAME    = TERRA
OBJECT_ID      = 1999-068A
CENTER_NAME    = EARTH
REF_FRAME      = TEME
TIME_SYSTEM    = UTC
MEAN_ELEMENT_THEORY = SGP/SGP4

EPOCH          = 2026-01-23T22:08:34.394784
MEAN_MOTION    = 14.60960453
ECCENTRICITY   = .00017416
INCLINATION    = 97.9685
RA_OF_ASC_NODE = 79.0464
ARG_OF_PERICENTER = 358.1489
MEAN_ANOMALY   = 54.2455

EPHEMERIS_TYPE = 0
CLASSIFICATION_TYPE = U
NORAD_CAT_ID   = 25994
ELEMENT_SET_NO = 999
REV_AT_EPOCH   = 38854
BSTAR          = .22076586E-3
MEAN_MOTION_DOT = .1037E-4
MEAN_MOTION_DDOT = 0

CCSDS_OMM_VERS = 2.0
CREATION_DATE  = 
ORIGINATOR     = 

OBJECT_NAME    = SL-16 R/B
OBJECT_ID      = 2000-006B
CENTER_NAME    = EARTH
REF_FRAME      = TEME
TIME_SYSTEM    = UTC
MEAN_ELEMENT_THEORY = SGP/SGP4

EPOCH          = 2026-01-23T12:18:29.928960
MEAN_MOTION    = 14.15813340
ECCENTRICITY   = .001869
INCLINATION    = 71.0004
RA_OF_ASC_NODE = 192.8250
ARG_OF_PERICENTER = 252.3495
MEAN_ANOMALY   = 107.5587

EPHEMERIS_TYPE = 0
CLASSIFICATION_TYPE = U
NORAD_CAT_ID   = 26070
ELEMENT_SET_NO = 999
REV_AT_EPOCH   = 34216
BSTAR          = .10854652E-3
MEAN_MOTION_DOT = .166E-5
MEAN_MOTION_DDOT = 0

CCSDS_OMM_VERS = 2.0
CREATION_DATE  = 
ORIGINATOR     = 

OBJECT_NAME    = TITAN 4B R/B
OBJECT_ID      = 2000-047B
CENTER_NAME    = EARTH
REF_FRAME      = TEME
TIME_SYSTEM    = UTC
MEAN_ELEMENT_THEORY = SGP/SGP4

EPOCH          = 2026-01-23T21:36:16.647552
MEAN_MOTION    = 15.09153752
ECCENTRICITY   = .00368748
INCLINATION    = 67.9891
RA_OF_ASC_NODE = 166.4168
ARG_OF_PERICENTER = 91.4364
MEAN_ANOMALY   = 269.1010

EPHEMERIS_TYPE = 0
CLASSIFICATION_TYPE = U
NORAD_CAT_ID   = 26474
ELEMENT_SET_NO = 999
REV_AT_EPOCH   = 38615
BSTAR          = .43856002E-3
MEAN_MOTION_DOT = .6962E-4
MEAN_MOTION_DDOT = 0

CCSDS_OMM_VERS = 2.0
CREATION_DATE  = 
ORIGINATOR     = 

OBJECT_NAME    = ENVISAT
OBJECT_ID      = 2002-009A
CENTER_NAME    = EARTH
REF_FRAME      = TEME
TIME_SYSTEM    = UTC
MEAN_ELEMENT_THEORY = SGP/SGP4

EPOCH          = 2026-01-23T19:49:46.067232
MEAN_MOTION    = 14.39017880
ECCENTRICITY   = .00012087
INCLINATION    = 98.3658
RA_OF_ASC_NODE = 338.5132
ARG_OF_PERICENTER = 91.9411
MEAN_ANOMALY   = 290.7486

EPHEMERIS_TYPE = 0
CLASSIFICATION_TYPE = U
NORAD_CAT_ID   = 27386
ELEMENT_SET_NO = 999
REV_AT_EPOCH   = 25272
BSTAR          = .10039255E-3
MEAN_MOTION_DOT = .267E-5
MEAN_MOTION_DDOT = 0

